{
    "week": 295,
    "satellites": [
        {
            "Name": "BEIDOU-3 M24 (C46)",
            "Line1": "1 44542U 19061A   24341.34624495  .00000076  00000+0  00000+0 0  9998",
            "Line2": "2 44542  54.4239 201.5461 0009090  15.8644 344.2512  1.86229289 35403",
            "SatelliteNumber": "44542",
            "Classification": "U",
            "LaunchYear": "19",
            "LaunchNumber": "061",
            "PieceOfLaunch": "A",
            "EpochYear": "24",
            "EpochDay": 341.34624495,
            "FirstDerivativeMeanMotion": 7.6e-07,
            "SecondDerivativeMeanMotion": "00000+0",
            "BSTAR": "00000+0",
            "SetNumber": "999",
            "Inclination": 54.4239,
            "RAAN": 201.5461,
            "Eccentricity": 0.000909,
            "ArgumentOfPerigee": 15.8644,
            "MeanAnomaly": 344.2512,
            "MeanMotion": 1.86229289,
            "RevolutionNumber": "3540"
        },
        {
            "Name": "BEIDOU-3 M23 (C45)",
            "Line1": "1 44543U 19061B   24341.24728473  .00000076  00000+0  00000+0 0  9999",
            "Line2": "2 44543  54.4225 201.5182 0005735  13.8552 192.5209  1.86229459 35403",
            "SatelliteNumber": "44543",
            "Classification": "U",
            "LaunchYear": "19",
            "LaunchNumber": "061",
            "PieceOfLaunch": "B",
            "EpochYear": "24",
            "EpochDay": 341.24728473,
            "FirstDerivativeMeanMotion": 7.6e-07,
            "SecondDerivativeMeanMotion": "00000+0",
            "BSTAR": "00000+0",
            "SetNumber": "999",
            "Inclination": 54.4225,
            "RAAN": 201.5182,
            "Eccentricity": 0.0005735,
            "ArgumentOfPerigee": 13.8552,
            "MeanAnomaly": 192.5209,
            "MeanMotion": 1.86229459,
            "RevolutionNumber": "3540"
        },
        {
            "Name": "BEIDOU-3 IGSO-3 (C40)",
            "Line1": "1 44709U 19073A   24341.26529905 -.00000188  00000+0  00000+0 0  9992",
            "Line2": "2 44709  55.7600 286.8993 0040010 190.1994 169.7034  1.00249666 18847",
            "SatelliteNumber": "44709",
            "Classification": "U",
            "LaunchYear": "19",
            "LaunchNumber": "073",
            "PieceOfLaunch": "A",
            "EpochYear": "24",
            "EpochDay": 341.26529905,
            "FirstDerivativeMeanMotion": -1.88e-06,
            "SecondDerivativeMeanMotion": "00000+0",
            "BSTAR": "00000+0",
            "SetNumber": "999",
            "Inclination": 55.76,
            "RAAN": 286.8993,
            "Eccentricity": 0.004001,
            "ArgumentOfPerigee": 190.1994,
            "MeanAnomaly": 169.7034,
            "MeanMotion": 1.00249666,
            "RevolutionNumber": "1884"
        },
        {
            "Name": "BEIDOU-3 M22 (C44)",
            "Line1": "1 44793U 19078A   24341.19041286 -.00000047  00000+0  00000+0 0  9997",
            "Line2": "2 44793  54.4297 319.3802 0005698  11.5197 348.4948  1.86231908 34250",
            "SatelliteNumber": "44793",
            "Classification": "U",
            "LaunchYear": "19",
            "LaunchNumber": "078",
            "PieceOfLaunch": "A",
            "EpochYear": "24",
            "EpochDay": 341.19041286,
            "FirstDerivativeMeanMotion": -4.7e-07,
            "SecondDerivativeMeanMotion": "00000+0",
            "BSTAR": "00000+0",
            "SetNumber": "999",
            "Inclination": 54.4297,
            "RAAN": 319.3802,
            "Eccentricity": 0.0005698,
            "ArgumentOfPerigee": 11.5197,
            "MeanAnomaly": 348.4948,
            "MeanMotion": 1.86231908,
            "RevolutionNumber": "3425"
        },
        {
            "Name": "BEIDOU-3 M21 (C43)",
            "Line1": "1 44794U 19078B   24341.31975184 -.00000047  00000+0  00000+0 0  9995",
            "Line2": "2 44794  54.4031 319.3480 0003867 356.3276   3.6712  1.86232441 34266",
            "SatelliteNumber": "44794",
            "Classification": "U",
            "LaunchYear": "19",
            "LaunchNumber": "078",
            "PieceOfLaunch": "B",
            "EpochYear": "24",
            "EpochDay": 341.31975184,
            "FirstDerivativeMeanMotion": -4.7e-07,
            "SecondDerivativeMeanMotion": "00000+0",
            "BSTAR": "00000+0",
            "SetNumber": "999",
            "Inclination": 54.4031,
            "RAAN": 319.348,
            "Eccentricity": 0.0003867,
            "ArgumentOfPerigee": 356.3276,
            "MeanAnomaly": 3.6712,
            "MeanMotion": 1.86232441,
            "RevolutionNumber": "3426"
        },
        {
            "Name": "BEIDOU-3 M19 (C41)",
            "Line1": "1 44864U 19090A   24341.63803597 -.00000001  00000+0  00000+0 0  9990",
            "Line2": "2 44864  56.0703  81.2974 0017284 278.6855 126.7140  1.86231298 33842",
            "SatelliteNumber": "44864",
            "Classification": "U",
            "LaunchYear": "19",
            "LaunchNumber": "090",
            "PieceOfLaunch": "A",
            "EpochYear": "24",
            "EpochDay": 341.63803597,
            "FirstDerivativeMeanMotion": -1e-08,
            "SecondDerivativeMeanMotion": "00000+0",
            "BSTAR": "00000+0",
            "SetNumber": "999",
            "Inclination": 56.0703,
            "RAAN": 81.2974,
            "Eccentricity": 0.0017284,
            "ArgumentOfPerigee": 278.6855,
            "MeanAnomaly": 126.714,
            "MeanMotion": 1.86231298,
            "RevolutionNumber": "3384"
        },
        {
            "Name": "BEIDOU-3 M20 (C42)",
            "Line1": "1 44865U 19090B   24341.57545638 -.00000001  00000+0  00000+0 0  9993",
            "Line2": "2 44865  56.0719  81.3331 0014545 291.5053 161.6313  1.86231283 33821",
            "SatelliteNumber": "44865",
            "Classification": "U",
            "LaunchYear": "19",
            "LaunchNumber": "090",
            "PieceOfLaunch": "B",
            "EpochYear": "24",
            "EpochDay": 341.57545638,
            "FirstDerivativeMeanMotion": -1e-08,
            "SecondDerivativeMeanMotion": "00000+0",
            "BSTAR": "00000+0",
            "SetNumber": "999",
            "Inclination": 56.0719,
            "RAAN": 81.3331,
            "Eccentricity": 0.0014545,
            "ArgumentOfPerigee": 291.5053,
            "MeanAnomaly": 161.6313,
            "MeanMotion": 1.86231283,
            "RevolutionNumber": "3382"
        },
        {
            "Name": "BEIDOU-3 G2 (C60)",
            "Line1": "1 45344U 20017A   24341.84250230 -.00000125  00000+0  00000+0 0  9995",
            "Line2": "2 45344   2.5554  35.5576 0004268 221.1113 202.7941  1.00271696 17684",
            "SatelliteNumber": "45344",
            "Classification": "U",
            "LaunchYear": "20",
            "LaunchNumber": "017",
            "PieceOfLaunch": "A",
            "EpochYear": "24",
            "EpochDay": 341.8425023,
            "FirstDerivativeMeanMotion": -1.25e-06,
            "SecondDerivativeMeanMotion": "00000+0",
            "BSTAR": "00000+0",
            "SetNumber": "999",
            "Inclination": 2.5554,
            "RAAN": 35.5576,
            "Eccentricity": 0.0004268,
            "ArgumentOfPerigee": 221.1113,
            "MeanAnomaly": 202.7941,
            "MeanMotion": 1.00271696,
            "RevolutionNumber": "1768"
        },
        {
            "Name": "BEIDOU-3 G3 (C61)",
            "Line1": "1 45807U 20040A   24341.68767005 -.00000337  00000+0  00000+0 0  9995",
            "Line2": "2 45807   1.1188  57.1001 0003660 299.9271  77.0456  1.00267377 16484",
            "SatelliteNumber": "45807",
            "Classification": "U",
            "LaunchYear": "20",
            "LaunchNumber": "040",
            "PieceOfLaunch": "A",
            "EpochYear": "24",
            "EpochDay": 341.68767005,
            "FirstDerivativeMeanMotion": -3.37e-06,
            "SecondDerivativeMeanMotion": "00000+0",
            "BSTAR": "00000+0",
            "SetNumber": "999",
            "Inclination": 1.1188,
            "RAAN": 57.1001,
            "Eccentricity": 0.000366,
            "ArgumentOfPerigee": 299.9271,
            "MeanAnomaly": 77.0456,
            "MeanMotion": 1.00267377,
            "RevolutionNumber": "1648"
        },
        {
            "Name": "BEIDOU-3 G4 (C62)",
            "Line1": "1 56564U 23066A   24341.65849782 -.00000094  00000+0  00000+0 0  9998",
            "Line2": "2 56564   1.6961 289.1140 0004204 259.2050 284.7241  1.00270564  5805",
            "SatelliteNumber": "56564",
            "Classification": "U",
            "LaunchYear": "23",
            "LaunchNumber": "066",
            "PieceOfLaunch": "A",
            "EpochYear": "24",
            "EpochDay": 341.65849782,
            "FirstDerivativeMeanMotion": -9.4e-07,
            "SecondDerivativeMeanMotion": "00000+0",
            "BSTAR": "00000+0",
            "SetNumber": "999",
            "Inclination": 1.6961,
            "RAAN": 289.114,
            "Eccentricity": 0.0004204,
            "ArgumentOfPerigee": 259.205,
            "MeanAnomaly": 284.7241,
            "MeanMotion": 1.00270564,
            "RevolutionNumber": "580"
        }
    ]
}